[{"OBJECT_NAME":"NUSHSAT1","OBJECT_ID":"2025-052B","EPOCH":"2026-03-09T15:31:41.225952","MEAN_MOTION":15.31903202,"ECCENTRICITY":0.0005501,"INCLINATION":97.4095,"RA_OF_ASC_NODE":325.7239,"ARG_OF_PERICENTER":84.7512,"MEAN_ANOMALY":275.4357,"EPHEMERIS_TYPE":0,"CLASSIFICATION_TYPE":"U","NORAD_CAT_ID":63211,"ELEMENT_SET_NO":999,"REV_AT_EPOCH":5488,"BSTAR":0.00074857,"MEAN_MOTION_DOT":0.00023034,"MEAN_MOTION_DDOT":0},{"OBJECT_NAME":"STARLINK-33653","OBJECT_ID":"2025-063T","EPOCH":"2026-03-09T23:27:59.953536","MEAN_MOTION":15.30212451,"ECCENTRICITY":0.00014102,"INCLINATION":53.1601,"RA_OF_ASC_NODE":51.1162,"ARG_OF_PERICENTER":97.2957,"MEAN_ANOMALY":262.8204,"EPHEMERIS_TYPE":0,"CLASSIFICATION_TYPE":"U","NORAD_CAT_ID":63380,"ELEMENT_SET_NO":999,"REV_AT_EPOCH":5475,"BSTAR":0.0012337874,"MEAN_MOTION_DOT":0.00036375,"MEAN_MOTION_DDOT":0}]
